[
  {
    "code": "34200176651",
    "name": "M4-Kozyatağı Metro Durağı",
    "type": "Metro İstanbul",
    "postcode": "34752",
    "city": "İstanbul",
    "town": "Ataşehir",
    "neighborhood": "İçerenköy",
    "yCoor": "29.09964",
    "xCoor": "40.9755",
    "address": "İçerenköy Mah. Ataşehir İstanbul"
  },
  {
    "code": "34200189840",
    "name": "M3-Bağcılar Meydan Metro Durağı",
    "type": "Metro İstanbul",
    "postcode": "34200",
    "city": "İstanbul",
    "town": "Bağcılar",
    "neighborhood": "Sancaktepe",
    "yCoor": "28.85636",
    "xCoor": "41.03472",
    "address": "Sancaktepe Mah. Çarşı Cad. Bağcılar İstanbul"
  },
  {
    "code": "34200189829",
    "name": "M3-İstoç Metro Durağı",
    "type": "Metro İstanbul",
    "postcode": "34218",
    "city": "İstanbul",
    "town": "Bağcılar",
    "neighborhood": "Mahmutbey",
    "yCoor": "28.82502",
    "xCoor": "41.06484",
    "address": "Mahmutbey Mah. Bb. Yolu Bağcılar İstanbul"
  },
  {
    "code": "34200189836",
    "name": "M3-Kirazlı Metro Durağı",
    "type": "Metro İstanbul",
    "postcode": "34212",
    "city": "İstanbul",
    "town": "Bağcılar",
    "neighborhood": "Kirazlı",
    "yCoor": "28.84229",
    "xCoor": "41.0331",
    "address": "Kirazlı Mah. Kardeşler Sok. Bağcılar İstanbul"
  },
  {
    "code": "34200189838",
    "name": "M3-Mahmutbey Metro Durağı",
    "type": "Metro İstanbul",
    "postcode": "34218",
    "city": "İstanbul",
    "town": "Bağcılar",
    "neighborhood": "Göztepe",
    "yCoor": "28.83031",
    "xCoor": "41.0534",
    "address": "Göztepe Mah. Bosna Cad. Bağcılar İstanbul"
  },
  {
    "code": "34200189828",
    "name": "M3-Üçyüzlü Metro Durağı",
    "type": "Metro İstanbul",
    "postcode": "34200",
    "city": "İstanbul",
    "town": "Bağcılar",
    "neighborhood": "Çınar",
    "yCoor": "28.87091",
    "xCoor": "41.03702",
    "address": "Çınar Mah. Esenler Cad. Bağcılar İstanbul"
  },
  {
    "code": "34200189839",
    "name": "M3-Yeni Mahalle Metro Durağı",
    "type": "Metro İstanbul",
    "postcode": "34212",
    "city": "İstanbul",
    "town": "Bağcılar",
    "neighborhood": "Yenimahalle",
    "yCoor": "28.83582",
    "xCoor": "41.04114",
    "address": "Yenimahalle Mah. Papatya Sok. Bağcılar İstanbul"
  },
  {
    "code": "34200016447",
    "name": "M1-Bahçelievler Metro Durağı",
    "type": "Metro İstanbul",
    "postcode": "34180",
    "city": "İstanbul",
    "town": "Bahçelievler",
    "neighborhood": "Bahçelievler",
    "yCoor": "28.86395",
    "xCoor": "40.99551",
    "address": "Bahçelievler Mah. D-100 Kuzey Yanyol Yolu Bahçelievler İstanbul"
  },
  {
    "code": "34200016444",
    "name": "M1-Ataköy-Şirinevler Metro Durağı",
    "type": "Metro İstanbul",
    "postcode": "34158",
    "city": "İstanbul",
    "town": "Bakırköy",
    "neighborhood": "Ataköy 7-8-9-10. Kısım",
    "yCoor": "28.84575",
    "xCoor": "40.99142",
    "address": "Ataköy 7-8-9-10. Mah. Yan Yol No:5 Bakırköy İstanbul"
  },
  {
    "code": "34200016466",
    "name": "M1-Atatürk Havalimanı Metro Durağı",
    "type": "Metro İstanbul",
    "postcode": "34149",
    "city": "İstanbul",
    "town": "Bakırköy",
    "neighborhood": "Yeşilköy",
    "yCoor": "28.82096",
    "xCoor": "40.98045",
    "address": "Yeşilköy Mah. Havaalanı Yolu Bakırköy İstanbul"
  },
  {
    "code": "34200016449",
    "name": "M1-Bakırköy-İncirli Metro Durağı",
    "type": "Metro İstanbul",
    "postcode": "34146",
    "city": "İstanbul",
    "town": "Bakırköy",
    "neighborhood": "Osmaniye",
    "yCoor": "28.87514",
    "xCoor": "40.99664",
    "address": "Osmaniye Mah. Olgunlar Sok. Bakırköy İstanbul"
  },
  {
    "code": "34200105574",
    "name": "M1-DTM-İstanbul Fuar Merkezi Metro Durağı",
    "type": "Metro İstanbul",
    "postcode": "34149",
    "city": "İstanbul",
    "town": "Bakırköy",
    "neighborhood": "Yeşilköy",
    "yCoor": "28.82857",
    "xCoor": "40.98655",
    "address": "Yeşilköy Mah. Bakırköy İstanbul"
  },
  {
    "code": "34200016446",
    "name": "M1-Yenibosna Metro Durağı",
    "type": "Metro İstanbul",
    "postcode": "34158",
    "city": "İstanbul",
    "town": "Bakırköy",
    "neighborhood": "Ataköy 7-8-9-10. Kısım",
    "yCoor": "28.83694",
    "xCoor": "40.98949",
    "address": "Ataköy 7-8-9-10. Mah. Bakırköy İstanbul"
  },
  {
    "code": "34200016445",
    "name": "M1-Zeytinburnu Metro Durağı",
    "type": "Metro İstanbul",
    "postcode": "34146",
    "city": "İstanbul",
    "town": "Bakırköy",
    "neighborhood": "Osmaniye",
    "yCoor": "28.88995",
    "xCoor": "41.00178",
    "address": "Osmaniye Mah. Yan Yol No:1/1 Bakırköy İstanbul"
  },
  {
    "code": "34200189833",
    "name": "M3-Başak Konutları Metro Durağı",
    "type": "Metro İstanbul",
    "postcode": "34480",
    "city": "İstanbul",
    "town": "Başakşehir",
    "neighborhood": "Başakşehir",
    "yCoor": "28.79112",
    "xCoor": "41.09788",
    "address": "Başakşehir Mah. Hürriyet Bul. Başakşehir İstanbul"
  },
  {
    "code": "34200189837",
    "name": "M3-İkitelli Sanayi Metro Durağı",
    "type": "Metro İstanbul",
    "postcode": "34490",
    "city": "İstanbul",
    "town": "Başakşehir",
    "neighborhood": "Ziya Gökalp",
    "yCoor": "28.80506",
    "xCoor": "41.07019",
    "address": "Ziya Gökalp Mah. Bedrettin Dalan Bul. Başakşehir İstanbul"
  },
  {
    "code": "34200189835",
    "name": "M3-Metrokent Metro Durağı",
    "type": "Metro İstanbul",
    "postcode": "34480",
    "city": "İstanbul",
    "town": "Başakşehir",
    "neighborhood": "Başak",
    "yCoor": "28.80096",
    "xCoor": "41.10746",
    "address": "Başak Mah. Şeyh Şamil Cad. Başakşehir İstanbul"
  },
  {
    "code": "34200189832",
    "name": "M3-Olimpiyat Metro Durağı",
    "type": "Metro İstanbul",
    "postcode": "34490",
    "city": "İstanbul",
    "town": "Başakşehir",
    "neighborhood": "Ziya Gökalp",
    "yCoor": "28.7672",
    "xCoor": "41.07944",
    "address": "Ziya Gökalp Mah. Başakşehir İstanbul"
  },
  {
    "code": "34200189830",
    "name": "M3-Siteler Metro Durağı",
    "type": "Metro İstanbul",
    "postcode": "34490",
    "city": "İstanbul",
    "town": "Başakşehir",
    "neighborhood": "Ziya Gökalp",
    "yCoor": "28.79606",
    "xCoor": "41.08863",
    "address": "Ziya Gökalp Mah. Süleyman Demirel Bul. Başakşehir İstanbul"
  },
  {
    "code": "34200189834",
    "name": "M3-Turgut Özak Metro Durağı",
    "type": "Metro İstanbul",
    "postcode": "34490",
    "city": "İstanbul",
    "town": "Başakşehir",
    "neighborhood": "Ziya Gökalp",
    "yCoor": "28.7974",
    "xCoor": "41.0805",
    "address": "Ziya Gökalp Mah. Turgut Özal Bul. Başakşehir İstanbul"
  },
  {
    "code": "34200189831",
    "name": "M3-Ziya Gökalp Metro Durağı",
    "type": "Metro İstanbul",
    "postcode": "34490",
    "city": "İstanbul",
    "town": "Başakşehir",
    "neighborhood": "Ziya Gökalp",
    "yCoor": "28.79179",
    "xCoor": "41.07435",
    "address": "Ziya Gökalp Mah. Seyit Onbaşı Cad. Başakşehir İstanbul"
  },
  {
    "code": "34200015633",
    "name": "M1-Kartaltepe-Kocatepe Metro Durağı",
    "type": "Metro İstanbul",
    "postcode": "34045",
    "city": "İstanbul",
    "town": "Bayrampaşa",
    "neighborhood": "Kocatepe",
    "yCoor": "28.89544",
    "xCoor": "41.04844",
    "address": "Kocatepe Mah. Paşa Cad. Bayrampaşa İstanbul"
  },
  {
    "code": "34200105573",
    "name": "M1-Otogar Metro Durağı",
    "type": "Metro İstanbul",
    "postcode": "34035",
    "city": "İstanbul",
    "town": "Bayrampaşa",
    "neighborhood": "Altıntepsi",
    "yCoor": "28.89454",
    "xCoor": "41.0402",
    "address": "Altıntepsi Mah. Bayrampaşa İstanbul"
  },
  {
    "code": "34200016131",
    "name": "M1-Sağmalcılar Metro Durağı",
    "type": "Metro İstanbul",
    "postcode": "34040",
    "city": "İstanbul",
    "town": "Bayrampaşa",
    "neighborhood": "İsmet Paşa",
    "yCoor": "28.90658",
    "xCoor": "41.04096",
    "address": "İsmet Paşa Mah. Badem Sok. Bayrampaşa İstanbul"
  },
  {
    "code": "34200013696",
    "name": "M2-4. Levent Metro Durağı",
    "type": "Metro İstanbul",
    "postcode": "34330",
    "city": "İstanbul",
    "town": "Beşiktaş",
    "neighborhood": "Konaklar",
    "yCoor": "29.00718",
    "xCoor": "41.08721",
    "address": "Konaklar Mah. Büyükdere Cad. Beşiktaş İstanbul"
  },
  {
    "code": "34200015900",
    "name": "M2-Levent Metro Durağı Çarşı Çıkışı",
    "type": "Metro İstanbul",
    "postcode": "34330",
    "city": "İstanbul",
    "town": "Beşiktaş",
    "neighborhood": "Levent",
    "yCoor": "29.01502",
    "xCoor": "41.07582",
    "address": "Levent Mah. Çarşı Cad. No:3 Beşiktaş İstanbul"
  },
  {
    "code": "34200368122",
    "name": "M6-Etiler Metro Durağı",
    "type": "Metro İstanbul",
    "postcode": "34337",
    "city": "İstanbul",
    "town": "Beşiktaş",
    "neighborhood": "Etiler",
    "yCoor": "29.03768",
    "xCoor": "41.08234",
    "address": "Etiler Mah. Bebek Dağı Sok. Beşiktaş İstanbul"
  },
  {
    "code": "34200368123",
    "name": "M6-Hisarüstü / Boğaziçi Üniversitesi Metro Durağı",
    "type": "Metro İstanbul",
    "postcode": "34342",
    "city": "İstanbul",
    "town": "Beşiktaş",
    "neighborhood": "Bebek",
    "yCoor": "29.04554",
    "xCoor": "41.08519",
    "address": "Bebek Mah. Nispetiye Cad. Beşiktaş İstanbul"
  },
  {
    "code": "34200368121",
    "name": "M6-Nispetiye Metro Durağı",
    "type": "Metro İstanbul",
    "postcode": "34340",
    "city": "İstanbul",
    "town": "Beşiktaş",
    "neighborhood": "Nisbetiye",
    "yCoor": "29.02468",
    "xCoor": "41.07719",
    "address": "Nisbetiye Mah. Ahmet Adnan Saygun Cad. Beşiktaş İstanbul"
  },
  {
    "code": "34200063443",
    "name": "M2-Şişhane Metro Durağı",
    "type": "Metro İstanbul",
    "postcode": "34430",
    "city": "İstanbul",
    "town": "Beyoğlu",
    "neighborhood": "Evliya Çelebi",
    "yCoor": "28.97309",
    "xCoor": "41.02841",
    "address": "Evliya Çelebi Mah. Meşrutiyet Cad. Beyoğlu İstanbul"
  },
  {
    "code": "34200189247",
    "name": "M2-Şişhane Metro Durağı Girişi",
    "type": "Metro İstanbul",
    "postcode": "34421",
    "city": "İstanbul",
    "town": "Beyoğlu",
    "neighborhood": "Şahkulu",
    "yCoor": "28.97489",
    "xCoor": "41.02881",
    "address": "Şahkulu Mah. İstiklal Cad. Beyoğlu İstanbul"
  },
  {
    "code": "34200015494",
    "name": "M2-Taksim Metro Durağı",
    "type": "Metro İstanbul",
    "postcode": "34437",
    "city": "İstanbul",
    "town": "Beyoğlu",
    "neighborhood": "Gümüşsuyu",
    "yCoor": "28.98571",
    "xCoor": "41.03693",
    "address": "Gümüşsuyu Mah. Tak-I Zafer Cad. Beyoğlu İstanbul"
  },
  {
    "code": "34200016130",
    "name": "M1-Esenler Metro Durağı",
    "type": "Metro İstanbul",
    "postcode": "34220",
    "city": "İstanbul",
    "town": "Esenler",
    "neighborhood": "Yavuz Selim",
    "yCoor": "28.88685",
    "xCoor": "41.03932",
    "address": "Yavuz Selim Mah. Davutpaşa-Otogar-Esenler Yolu Esenler İstanbul"
  },
  {
    "code": "34200016129",
    "name": "M1-Terazidere Metro Durağı",
    "type": "Metro İstanbul",
    "postcode": "34220",
    "city": "İstanbul",
    "town": "Esenler",
    "neighborhood": "Namık Kemal",
    "yCoor": "28.89777",
    "xCoor": "41.03061",
    "address": "Namık Kemal Mah. Dumlupınar Cad. Esenler İstanbul"
  },
  {
    "code": "34200189842",
    "name": "M3-Esenler Metro Durağı",
    "type": "Metro İstanbul",
    "postcode": "34220",
    "city": "İstanbul",
    "town": "Esenler",
    "neighborhood": "Yavuz Selim",
    "yCoor": "28.88861",
    "xCoor": "41.03753",
    "address": "Yavuz Selim Mah. Davutpaşa Otogar Esenler Yolu Esenler İstanbul"
  },
  {
    "code": "34200189841",
    "name": "M3-Menderes Metro Durağı",
    "type": "Metro İstanbul",
    "postcode": "34225",
    "city": "İstanbul",
    "town": "Esenler",
    "neighborhood": "Menderes",
    "yCoor": "28.87833",
    "xCoor": "41.04279",
    "address": "Menderes Mah. 369. Sok. Esenler İstanbul"
  },
  {
    "code": "34200014813",
    "name": "M1-Bayrampaşa-Maltepe Metro Durağı",
    "type": "Metro İstanbul",
    "postcode": "34055",
    "city": "İstanbul",
    "town": "Eyüp",
    "neighborhood": "Topçular",
    "yCoor": "28.92025",
    "xCoor": "41.0341",
    "address": "Topçular Mah. Mahmutbey-Aksaray Bağlantı Yolu Eyüp İstanbul"
  },
  {
    "code": "34200014669",
    "name": "M1-Aksaray Metro Durağı",
    "type": "Metro İstanbul",
    "postcode": "34080",
    "city": "İstanbul",
    "town": "Fatih",
    "neighborhood": "İskenderpaşa",
    "yCoor": "28.94758",
    "xCoor": "41.01223",
    "address": "İskenderpaşa Mah. Adnan Menderes Vatan Bul. Fatih İstanbul"
  },
  {
    "code": "34200014668",
    "name": "M1-Emniyet-Fatih Metro Durağı",
    "type": "Metro İstanbul",
    "postcode": "34080",
    "city": "İstanbul",
    "town": "Fatih",
    "neighborhood": "Akşemsettin",
    "yCoor": "28.9392",
    "xCoor": "41.01806",
    "address": "Akşemsettin Mah. Adnan Menderes Vatan Bul. Fatih İstanbul"
  },
  {
    "code": "34200014665",
    "name": "M1-Topkapı-Ulubatlı Metro Durağı",
    "type": "Metro İstanbul",
    "postcode": "34091",
    "city": "İstanbul",
    "town": "Fatih",
    "neighborhood": "Karagümrük",
    "yCoor": "28.93009",
    "xCoor": "41.02404",
    "address": "Karagümrük Mah. Adnan Menderes Vatan Bul. Fatih İstanbul"
  },
  {
    "code": "34200335953",
    "name": "M2-Haliç Metro Durağı",
    "type": "Metro İstanbul",
    "postcode": "34134",
    "city": "İstanbul",
    "town": "Fatih",
    "neighborhood": "Sarıdemir",
    "yCoor": "28.96467",
    "xCoor": "41.02078",
    "address": "Sarıdemir Mah. Haliç Metro Köprüsü Fatih İstanbul"
  },
  {
    "code": "34200335954",
    "name": "M2-Vezneciler Metro Durağı",
    "type": "Metro İstanbul",
    "postcode": "34134",
    "city": "İstanbul",
    "town": "Fatih",
    "neighborhood": "Kalenderhane",
    "yCoor": "28.95947",
    "xCoor": "41.01247",
    "address": "Kalenderhane Mah. 15 Temmuz Şehitleri Cad. Fatih İstanbul"
  },
  {
    "code": "34200335955",
    "name": "M2-Yenikapı Metro Durağı",
    "type": "Metro İstanbul",
    "postcode": "34096",
    "city": "İstanbul",
    "town": "Fatih",
    "neighborhood": "Aksaray",
    "yCoor": "28.95158",
    "xCoor": "41.00518",
    "address": "Aksaray Mah. Çuhacıoğlu Sok. Fatih İstanbul"
  },
  {
    "code": "34200014506",
    "name": "M1-Davutpaşa-YTÜ Metro Durağı",
    "type": "Metro İstanbul",
    "postcode": "34173",
    "city": "İstanbul",
    "town": "Güngören",
    "neighborhood": "Tozkoparan",
    "yCoor": "28.90044",
    "xCoor": "41.02002",
    "address": "Tozkoparan Mah. General Ali Rıza Gürcan Cad. Güngören İstanbul"
  },
  {
    "code": "34200014508",
    "name": "M1-Merter Metro Durağı",
    "type": "Metro İstanbul",
    "postcode": "34173",
    "city": "İstanbul",
    "town": "Güngören",
    "neighborhood": "Abdurrahman Nafiz Gürman",
    "yCoor": "28.89596",
    "xCoor": "41.00752",
    "address": "Abdurrahman Nafiz Gürman Mah. General Ali Rıza Gürcan Cad. Güngören İstanbul"
  },
  {
    "code": "34200176647",
    "name": "M4-Acıbadem Metro Durağı",
    "type": "Metro İstanbul",
    "postcode": "34718",
    "city": "İstanbul",
    "town": "Kadıköy",
    "neighborhood": "Acıbadem",
    "yCoor": "29.04457",
    "xCoor": "41.00242",
    "address": "Acıbadem Mah. D-100 Karayolu Kadıköy İstanbul"
  },
  {
    "code": "34200176646",
    "name": "M4-Ayrılıkçeşme Metro Durağı",
    "type": "Metro İstanbul",
    "postcode": "34716",
    "city": "İstanbul",
    "town": "Kadıköy",
    "neighborhood": "Rasimpaşa",
    "yCoor": "29.0295",
    "xCoor": "40.99942",
    "address": "Rasimpaşa Mah. Doktor Eyüp Aksoy Cad. Kadıköy İstanbul"
  },
  {
    "code": "34200176652",
    "name": "M4-Bostancı Metro Durağı",
    "type": "Metro İstanbul",
    "postcode": "34744",
    "city": "İstanbul",
    "town": "Kadıköy",
    "neighborhood": "Bostancı",
    "yCoor": "29.10289",
    "xCoor": "40.96476",
    "address": "Bostancı Mah. Muhtar Halil Coşkun Sok. Kadıköy İstanbul"
  },
  {
    "code": "34200176645",
    "name": "M4-Kadıköy Metro Durağı",
    "type": "Metro İstanbul",
    "postcode": "34710",
    "city": "İstanbul",
    "town": "Kadıköy",
    "neighborhood": "Caferağa",
    "yCoor": "29.02273",
    "xCoor": "40.99055",
    "address": "Caferağa Mah. Albay Faik Sözdener Cad. Kadıköy İstanbul"
  },
  {
    "code": "34200176650",
    "name": "M4-Yenisahra Metro Durağı",
    "type": "Metro İstanbul",
    "postcode": "34734",
    "city": "İstanbul",
    "town": "Kadıköy",
    "neighborhood": "Sahrayıcedit",
    "yCoor": "29.08935",
    "xCoor": "40.98535",
    "address": "Sahrayı Cedit Mah. Mümin Deresi Sok. Kadıköy İstanbul"
  },
  {
    "code": "34200176658",
    "name": "M4-Hastane-Anadolu Adalet Sarayı Metro Durağı",
    "type": "Metro İstanbul",
    "postcode": "34865",
    "city": "İstanbul",
    "town": "Kartal",
    "neighborhood": "Cevizli",
    "yCoor": "29.17554",
    "xCoor": "40.91729",
    "address": "Cevizli Mah. Cevizli D-100 Güney Yanyol Cad. No:39 Kartal İstanbul"
  },
  {
    "code": "34200176660",
    "name": "M4-Kartal Metro Durağı",
    "type": "Metro İstanbul",
    "postcode": "34880",
    "city": "İstanbul",
    "town": "Kartal",
    "neighborhood": "Orta",
    "yCoor": "29.21104",
    "xCoor": "40.90679",
    "address": "Orta Mah. Kartal Kavşağı Kartal İstanbul"
  },
  {
    "code": "34200176659",
    "name": "M4-Soğanlık Metro Durağı",
    "type": "Metro İstanbul",
    "postcode": "34880",
    "city": "İstanbul",
    "town": "Kartal",
    "neighborhood": "Soğanlık Yeni",
    "yCoor": "29.19365",
    "xCoor": "40.91323",
    "address": "Soğanlık Yeni Mah. Atatürk Cad. Kartal İstanbul"
  },
  {
    "code": "34200409341",
    "name": "M4-Yakacık Metro Durağı",
    "type": "Metro İstanbul",
    "postcode": "34876",
    "city": "İstanbul",
    "town": "Kartal",
    "neighborhood": "Hürriyet",
    "yCoor": "29.22772",
    "xCoor": "40.89702",
    "address": "Hürriyet Mah. Kartal İstanbul"
  },
  {
    "code": "34200176657",
    "name": "M4-Esenkent Metro Durağı",
    "type": "Metro İstanbul",
    "postcode": "34848",
    "city": "İstanbul",
    "town": "Maltepe",
    "neighborhood": "Esenkent",
    "yCoor": "29.16813",
    "xCoor": "40.92044",
    "address": "Esenkent Mah. Özmen Sok. Maltepe İstanbul"
  },
  {
    "code": "34200176656",
    "name": "M4-Gülsuyu Metro Durağı",
    "type": "Metro İstanbul",
    "postcode": "34846",
    "city": "İstanbul",
    "town": "Maltepe",
    "neighborhood": "Cevizli",
    "yCoor": "29.15608",
    "xCoor": "40.92341",
    "address": "Cevizli Mah. Fil Yokuşu Sok. Maltepe İstanbul"
  },
  {
    "code": "34200176655",
    "name": "M4-Huzurevi Metro Durağı",
    "type": "Metro İstanbul",
    "postcode": "34852",
    "city": "İstanbul",
    "town": "Maltepe",
    "neighborhood": "Zümrütevler",
    "yCoor": "29.1462",
    "xCoor": "40.9307",
    "address": "Zümrütevler Mah. Zümrütevler Kavşağı Maltepe İstanbul"
  },
  {
    "code": "34200176653",
    "name": "M4-Küçükyalı Metro Durağı",
    "type": "Metro İstanbul",
    "postcode": "34841",
    "city": "İstanbul",
    "town": "Maltepe",
    "neighborhood": "Çınar",
    "yCoor": "29.12216",
    "xCoor": "40.94931",
    "address": "Çınar Mah. Küçükyalı Kavşağı Maltepe İstanbul"
  },
  {
    "code": "34200176654",
    "name": "M4-Maltepe Metro Durağı",
    "type": "Metro İstanbul",
    "postcode": "34844",
    "city": "İstanbul",
    "town": "Maltepe",
    "neighborhood": "Bağlarbaşı",
    "yCoor": "29.13867",
    "xCoor": "40.93562",
    "address": "Bağlarbaşı Mah. Maltepe Kavşağı Maltepe İstanbul"
  },
  {
    "code": "34200409342",
    "name": "M4-Pendik Metro Durağı",
    "type": "Metro İstanbul",
    "postcode": "34896",
    "city": "İstanbul",
    "town": "Pendik",
    "neighborhood": "Çınardere",
    "yCoor": "29.23785",
    "xCoor": "40.889",
    "address": "Çınardere Mah. D-100 Karayolu Pendik İstanbul"
  },
  {
    "code": "34200409340",
    "name": "M4-Tavşantepe Metro Durağı",
    "type": "Metro İstanbul",
    "postcode": "34896",
    "city": "İstanbul",
    "town": "Pendik",
    "neighborhood": "Dumlupınar",
    "yCoor": "29.24919",
    "xCoor": "40.88227",
    "address": "Dumlupınar Mah. Tevfik İleri Cad. Pendik İstanbul"
  },
  {
    "code": "34200105572",
    "name": "M2-Atatürk Oto Sanayi Metro Durağı",
    "type": "Metro İstanbul",
    "postcode": "34485",
    "city": "İstanbul",
    "town": "Sarıyer",
    "neighborhood": "Maslak",
    "yCoor": "29.02349",
    "xCoor": "41.11637",
    "address": "Maslak Mah. 38. Sok. Sarıyer İstanbul"
  },
  {
    "code": "34200136836",
    "name": "M2-Darüşşafaka Metro Durağı",
    "type": "Metro İstanbul",
    "postcode": "34457",
    "city": "İstanbul",
    "town": "Sarıyer",
    "neighborhood": "Çamlıtepe",
    "yCoor": "29.02532",
    "xCoor": "41.13013",
    "address": "Çamlıtepe Mah. Ulu Cad. Sarıyer İstanbul"
  },
  {
    "code": "34200178224",
    "name": "M2-Hacıosman Metro Durağı",
    "type": "Metro İstanbul",
    "postcode": "34457",
    "city": "İstanbul",
    "town": "Sarıyer",
    "neighborhood": "Tarabya",
    "yCoor": "29.03112",
    "xCoor": "41.14014",
    "address": "Tarabya Mah. Tarabya Bayırı Cad. Sarıyer İstanbul"
  },
  {
    "code": "34200014061",
    "name": "M2-İTÜ Ayazağa Metro Durağı",
    "type": "Metro İstanbul",
    "postcode": "34467",
    "city": "İstanbul",
    "town": "Sarıyer",
    "neighborhood": "Reşitpaşa",
    "yCoor": "29.0206",
    "xCoor": "41.10809",
    "address": "Reşitpaşa Mah. Büyükdere Cad. Sarıyer İstanbul"
  },
  {
    "code": "34200013628",
    "name": "M2-Sanayi Mahallesi Metro Durağı",
    "type": "Metro İstanbul",
    "postcode": "34485",
    "city": "İstanbul",
    "town": "Sarıyer",
    "neighborhood": "Huzur",
    "yCoor": "29.00498",
    "xCoor": "41.09388",
    "address": "Huzur Mah. Eski Büyükdere Cad. Sarıyer İstanbul"
  },
  {
    "code": "34200136838",
    "name": "M2-Seyrantepe Metro Durağı",
    "type": "Metro İstanbul",
    "postcode": "34485",
    "city": "İstanbul",
    "town": "Sarıyer",
    "neighborhood": "Huzur",
    "yCoor": "28.99488",
    "xCoor": "41.10285",
    "address": "Huzur Mah. Sarıyer İstanbul"
  },
  {
    "code": "34200014386",
    "name": "M2-4. Levent Metro Durağı",
    "type": "Metro İstanbul",
    "postcode": "34394",
    "city": "İstanbul",
    "town": "Şişli",
    "neighborhood": "Esentepe",
    "yCoor": "29.00657",
    "xCoor": "41.08705",
    "address": "Esentepe Mah. Eski Büyükdere Cad. Şişli İstanbul"
  },
  {
    "code": "34200013379",
    "name": "M2-Gayrettepe Metro Durağı",
    "type": "Metro İstanbul",
    "postcode": "34394",
    "city": "İstanbul",
    "town": "Şişli",
    "neighborhood": "Esentepe",
    "yCoor": "29.0108",
    "xCoor": "41.06909",
    "address": "Esentepe Mah. Büyükdere Cad. Şişli İstanbul"
  },
  {
    "code": "34200013380",
    "name": "M2-Levent Metro Durağı",
    "type": "Metro İstanbul",
    "postcode": "34394",
    "city": "İstanbul",
    "town": "Şişli",
    "neighborhood": "Esentepe",
    "yCoor": "29.01328",
    "xCoor": "41.07778",
    "address": "Esentepe Mah. Büyükdere Cad. Şişli İstanbul"
  },
  {
    "code": "34200013357",
    "name": "M2-Mecidiyeköy Metro Durağı",
    "type": "Metro İstanbul",
    "postcode": "34384",
    "city": "İstanbul",
    "town": "Şişli",
    "neighborhood": "Merkez",
    "yCoor": "28.99451",
    "xCoor": "41.06594",
    "address": "Merkez Mah. Büyükdere Cad. Şişli İstanbul"
  },
  {
    "code": "34200013398",
    "name": "M2-Osmanbey Metro Durağı",
    "type": "Metro İstanbul",
    "postcode": "34363",
    "city": "İstanbul",
    "town": "Şişli",
    "neighborhood": "Meşrutiyet",
    "yCoor": "28.9873",
    "xCoor": "41.05384",
    "address": "Meşrutiyet Mah. Halaskargazi Cad. No:92/C Şişli İstanbul"
  },
  {
    "code": "34200013433",
    "name": "M2-Şişli Metro Durağı",
    "type": "Metro İstanbul",
    "postcode": "34363",
    "city": "İstanbul",
    "town": "Şişli",
    "neighborhood": "19 Mayıs",
    "yCoor": "28.992",
    "xCoor": "41.06377",
    "address": "19 Mayıs Mah. Büyükdere Cad. Şişli İstanbul"
  },
  {
    "code": "34200176649",
    "name": "M4-Göztepe Metro Durağı",
    "type": "Metro İstanbul",
    "postcode": "34700",
    "city": "İstanbul",
    "town": "Üsküdar",
    "neighborhood": "Ünalan",
    "yCoor": "29.07304",
    "xCoor": "40.99314",
    "address": "Ünalan Mah. Göztepe Kavşağı Üsküdar İstanbul"
  },
  {
    "code": "34200176648",
    "name": "M4-Ünalan Metro Durağı",
    "type": "Metro İstanbul",
    "postcode": "34700",
    "city": "İstanbul",
    "town": "Üsküdar",
    "neighborhood": "Ünalan",
    "yCoor": "29.05883",
    "xCoor": "40.99835",
    "address": "Ünalan Mah. Uzunçayır Kavşağı Üsküdar İstanbul"
  }
]